IRIDIUM 116             
1 43072U 17083C   24302.48484777  .00001852  00000+0  65394-3 0  9990
2 43072  86.4022 211.3505 0002205  81.3422 278.8024 14.34220168358644
IRIDIUM 130             
1 43073U 17083D   24302.45313263  .00001313  00000+0  46162-3 0  9993
2 43073  86.4030 211.5811 0002450  83.1688 276.9787 14.34224388358588
IRIDIUM 151             
1 43074U 17083E   24302.14867788  .00001018  00000+0  35651-3 0  9999
2 43074  86.4037 211.5362 0002156  78.3263 281.8175 14.34213780358563
IRIDIUM 134             
1 43075U 17083F   24302.74488786  .00001139  00000+0  39937-3 0  9998
2 43075  86.4027 211.2866 0002287  80.8043 279.3411 14.34232072358614
IRIDIUM 137             
1 43076U 17083G   24302.47849710  .00001349  00000+0  47454-3 0  9993
2 43076  86.4027 211.4779 0002034  67.2162 292.9249 14.34226601358645
IRIDIUM 141             
1 43077U 17083H   24302.47216450  .00000517  00000+0  17759-3 0  9994
2 43077  86.4024 211.3456 0002095  86.2267 273.9168 14.34220119358645
IRIDIUM 153             
1 43078U 17083J   24302.42434278  .00000807  00000+0  28105-3 0  9999
2 43078  86.4032 179.8971 0001880 101.4796 258.6611 14.34220354359749
IRIDIUM 131             
1 43079U 17083K   24302.45947897  .00001182  00000+0  41477-3 0  9993
2 43079  86.4027 211.4968 0001959  82.9521 277.1897 14.34219652358570
